ORBCOMM FM33            
1 25983U 99065D   25283.94379019  .00001179  00000+0  41345-3 0  9995
2 25983  45.0278 168.5136 0008584 292.5466  67.4475 14.40279517352759
ORBCOMM FM36            
1 25984U 99065E   25283.98921417  .00001586  00000+0  56131-3 0  9996
2 25984  45.0387 261.9950 0002267 216.6776 143.3918 14.38442624351096
ORBCOMM FM35            
1 25985U 99065F   25283.98349709  .00001352  00000+0  49577-3 0  9992
2 25985  45.0392 267.9862 0005787 269.3467  90.6718 14.37373905351448
ORBCOMM FM34            
1 25986U 99065G   25283.67071257  .00001111  00000+0  41596-3 0  9995
2 25986  45.0386 269.9221 0004641 233.8545 126.1874 14.37362695351514
ORBCOMM FM38            
1 33060U 08031A   25283.94520730  .00002021  00000+0  27991-3 0  9999
2 33060  48.4381 123.4066 0005115 184.1356 175.9518 14.81835296931910
ORBCOMM FM41            
1 33061U 08031B   25283.84913267  .00002043  00000+0  28554-3 0  9990
2 33061  48.4418 132.0488 0004187 168.7676 204.7851 14.81403680931387
ORBCOMM FM29            
1 33062U 08031C   25283.98372130  .00002105  00000+0  29257-3 0  9994
2 33062  48.4369 139.0693 0005849 166.8523 335.1250 14.81529099931312
ORBCOMM FM39            
1 33063U 08031D   25283.96813487  .00001861  00000+0  27105-3 0  9996
2 33063  48.4385 164.7074 0006497 136.0775 224.0657 14.80024141930949
